CUBESAT XI-IV (CO-57)   
1 27848U 03031J   23015.73681714  .00000519  00000+0  25389-3 0  9998
2 27848  98.6834  25.7014 0009050 217.1990 142.8561 14.22125843 13835
CUBESAT XI-V            
1 28895U 05043F   23016.33952334  .00003751  00000+0  70987-3 0  9997
2 28895  98.1306 149.8624 0016277 187.1569 172.9404 14.64848717918808
CUTE-1.7+APD II (CO-65) 
1 32785U 08021C   23016.17846497  .00008034  00000+0  82455-3 0  9995
2 32785  97.6862 345.7516 0010992 245.0494 114.9583 14.90620919798236
AAUSAT-II               
1 32788U 08021F   23015.92442808  .00016617  00000+0  13426-2 0  9995
2 32788  97.5553 359.2693 0010554 123.1838 237.0399 14.99840058800359
DELFI-C3 (DO-64)        
1 32789U 08021G   23016.01024097  .00053897  00000+0  24381-2 0  9996
2 32789  97.3227  40.2498 0007149 310.5567  49.5046 15.20694896804242
SEEDS II (CO-66)        
1 32791U 08021J   23015.65819099  .00008830  00000+0  82821-3 0  9993
2 32791  97.6378 350.5404 0012041 194.7883 165.2987 14.94172093798869
SWISSCUBE               
1 35932U 09051B   23015.85407732  .00001730  00000+0  39365-3 0  9993
2 35932  98.5414 242.4498 0008479 111.0838 249.1267 14.57208513707021
BEESAT-1                
1 35933U 09051C   23015.87800813  .00001932  00000+0  43861-3 0  9993
2 35933  98.5348 243.9432 0006585 120.7217 239.4630 14.57184862707101
ITUPSAT1                
1 35935U 09051E   23015.88930973  .00001785  00000+0  41405-3 0  9995
2 35935  98.5450 243.9515 0008820 126.2596 233.9417 14.56270461706790
TISAT 1                 
1 36799U 10035E   23015.57846177  .00007711  00000+0  72376-3 0  9992
2 36799  98.1576 239.2534 0012770 113.7286 246.5274 14.94209242679622
M-CUBED & EXP-1 PRIME   
1 37855U 11061F   23016.48871452  .00028925  00000+0  11159-2 0  9992
2 37855 101.7116 254.5421 0139293 141.6903 219.4310 15.17656849613957
AEROCUBE 4.5A           
1 38767U 12048K   23016.12911324  .00023374  00000+0  15856-2 0  9996
2 38767  64.6640 162.0210 0153205 203.3189 156.0928 14.97276280182595
AEROCUBE 4.5B           
1 38768U 12048L   23015.87727830  .00029301  00000+0  17680-2 0  9998
2 38768  64.6654 112.0470 0135361 198.5777 161.0375 15.03205982183036
STRAND-1                
1 39090U 13009E   23016.54199142  .00000663  00000+0  24558-3 0  9992
2 39090  98.3911 214.0173 0009072   3.8941 356.2314 14.35415380517983
BRITE-AUSTRIA           
1 39091U 13009F   23016.11318655  .00000512  00000+0  19339-3 0  9992
2 39091  98.3933 212.8037 0010646  10.9268 349.2147 14.35360716517947
SOMP                    
1 39134U 13015E   23016.23725354  .00067804  00000+0  17906-2 0  9992
2 39134  64.8584  79.7501 0025595 255.8578 103.9714 15.37715031539838
BEESAT-3                
1 39135U 13015F   23016.52916608  .00042412  00000+0  14173-2 0  9990
2 39135  64.8633 121.0205 0032184 253.2493 106.5107 15.30278496539068
BEESAT-2                
1 39136U 13015G   23016.54610612  .00037342  00000+0  13196-2 0  9999
2 39136  64.8719 130.6217 0026261 288.3557  71.4718 15.28679285538898
NEE-01 PEGASO           
1 39151U 13018B   23016.57299063  .00004936  00000+0  63290-3 0  9999
2 39151  97.9996 126.7335 0015371 285.8466  74.1052 14.81644080525235
ESTCUBE 1               
1 39161U 13021C   23016.15450029  .00002471  00000+0  38764-3 0  9999
2 39161  97.8902  92.7056 0010643  97.7926 262.4529 14.73480150520785
POPACS 1                
1 39268U 13055D   23015.67951503  .00030925  00000+0  74841-3 0  9994
2 39268  80.9957   9.9275 0537481 276.0188  78.0035 14.58638228484141
POPACS 2                
1 39269U 13055E   23015.91294592  .00017566  00000+0  46277-3 0  9998
2 39269  81.0101  73.4242 0628295  80.7073 286.4566 14.37775612481879
POPACS 3                
1 39270U 13055F   23015.99531133  .00019395  00000+0  57805-3 0  9994
2 39270  81.0138 110.2579 0677606 184.6680 174.7977 14.24759402479565
ZACUBE-1 (TSHEPISOSAT)  
1 39417U 13066B   23016.14260545  .00007691  00000+0  91678-3 0  9995
2 39417  97.6655 343.4943 0058188  67.7530 292.9842 14.83340610494645
WNISAT-1                
1 39423U 13066H   23016.54705578  .00001439  00000+0  29066-3 0  9992
2 39423  97.7220 246.9837 0172913 191.3269 168.4049 14.53782359485403
TRITON-1                
1 39427U 13066M   23016.35639086  .00007027  00000+0  10818-2 0  9998
2 39427  97.8291 308.1349 0109105 304.4367  54.6565 14.69791371490231
DELFI-N3XT              
1 39428U 13066N   23016.35111296  .00013097  00000+0  19563-2 0  9997
2 39428  97.8283 306.8413 0113740 317.3107  41.9303 14.70543116489988
GOMX-1                  
1 39430U 13066Q   23016.52866357  .00002289  00000+0  40848-3 0  9996
2 39430  97.7962 276.4479 0149224  92.6855 269.1507 14.60832842487396
CUBEBUG-2 (LO-74)       
1 39440U 13066AA  23016.12366044  .00005413  00000+0  72114-3 0  9994
2 39440  97.7547 330.1668 0077974 160.2920 200.1333 14.77920578492885
NEE-02 KRYSAOR          
1 39441U 13066AB  23015.84888299  .00003717  00000+0  51490-3 0  9993
2 39441  97.7660 326.9359 0079726 176.4174 183.7625 14.76393121491368
FUNCUBE-1 (AO-73)       
1 39444U 13066AE  23015.85689679  .00010401  00000+0  12003-2 0  9992
2 39444  97.6526 345.6704 0056615  55.8006 304.8557 14.84643307493612
UWE-3                   
1 39446U 13066AG  23016.45159894  .00006242  00000+0  78899-3 0  9996
2 39446  97.7154 336.7656 0068884 114.1462 246.6973 14.80510548492558
AEROCUBE 5A             
1 39465U 13072D   23016.10850718  .00179517  00000+0  57545-2 0  9999
2 39465 120.4823  38.6567 0149188 141.3099 219.8768 15.21206757181661
BRITE-CA1 (TORONTO)     
1 40020U 14033L   23016.40227175  .00001984  00000+0  34085-3 0  9991
2 40020  97.8013 169.9191 0085248 304.9567  54.3653 14.67388477458999
DUCHIFAT-1              
1 40021U 14033M   23015.83856490  .00012467  00000+0  11492-2 0  9990
2 40021  98.0402 335.4414 0013558  63.7288 296.5323 14.94762850466408
NANOSATC-BR1            
1 40024U 14033Q   23015.82436585  .00009601  00000+0  92018-3 0  9991
2 40024  98.0110 327.6031 0013124  69.8159 290.4470 14.93294522465655
QB50P1                  
1 40025U 14033R   23015.79254647  .00008545  00000+0  85125-3 0  9992
2 40025  97.9815 320.2204 0013516  79.6807 280.5934 14.91785968465406
QB50P2                  
1 40032U 14033Y   23016.10631558  .00009846  00000+0  99614-3 0  9999
2 40032  97.9553 315.0573 0012934  77.0062 283.2599 14.91127429465816
PERSEUS-M2              
1 40037U 14033AD  23016.10297731  .00003256  00000+0  36350-3 0  9992
2 40037  97.9039 302.2231 0015618  99.2504 261.0479 14.87614504465235
PERSEUS-M1              
1 40039U 14033AF  23015.75051469  .00002818  00000+0  31850-3 0  9993
2 40039  97.8917 299.2141 0015471  99.5008 260.7957 14.87220512464558
POLYITAN-1              
1 40042U 14033AJ  23015.78752060  .00010110  00000+0  99766-3 0  9999
2 40042  97.9925 321.7390 0015425  72.1594 288.1305 14.92094674465292
TIGRISAT                
1 40043U 14033AK  23016.06880919  .00005031  00000+0  72433-3 0  9995
2 40043  97.6542 198.9555 0058357 186.0769 173.9740 14.75593767461278
AEROCUBE 6A             
1 40045U 14033AM  23015.76704364  .00006431  00000+0  89258-3 0  9990
2 40045  97.6552 208.0237 0056158 173.4071 186.7892 14.77136362461113
AEROCUBE 6B             
1 40046U 14033AN  23016.48621590  .00008635  00000+0  11784-2 0  9996
2 40046  97.6483 207.1194 0054803 168.6864 191.5594 14.77807212461617
UKUBE-1                 
1 40074U 14037F   23016.49263928  .00005698  00000+0  65075-3 0  9998
2 40074  98.3571 273.1044 0003232 338.5739  21.5480 14.86484570461704
BRITE-PL2 (HEWELIUSZ)   
1 40119U 14049B   23015.81304005  .00003349  00000+0  39162-3 0  9997
2 40119  97.8821 114.3298 0015640 267.1882  92.7543 14.85684932455532
FIREBIRD 4              
1 40378U 15003C   23016.31292887  .00088171  00000+0  19244-2 0  9999
2 40378  99.0787 295.1724 0080492  20.3040 340.1371 15.40453164441063
GRIFEX                  
1 40379U 15003D   23015.96098987  .00039797  00000+0  11939-2 0  9998
2 40379  99.0849 277.6817 0103964  71.8313 289.4208 15.29100710440038
CP10 (EXOCUBE)          
1 40380U 15003E   23015.90536141  .00028743  00000+0  98212-3 0  9992
2 40380  99.0945 269.1512 0114871 100.1718 261.2493 15.24080788439465
EXACTVIEW 9             
1 40936U 15052G   23015.69116828  .00003950  00000+0  44975-3 0  9995
2 40936   6.0033  98.2497 0011234 284.3602  75.5279 14.77692439394655
AEROCUBE 5C             
1 40965U 15058B   23016.48591781  .00007425  00000+0  82324-3 0  9997
2 40965  64.7728 144.2826 0168870 128.8906 232.7402 14.78070341180409
AEROCUBE 7              
1 40966U 15058C   23016.44427176  .00008715  00000+0  95121-3 0  9992
2 40966  64.7721 141.2112 0166720 128.7590 232.8550 14.78778004180437
ATHENOXAT 1             
1 41168U 15077C   23016.15193350  .00069849  00000+0  23007-2 0  9998
2 41168  14.9910 305.9764 0008364 359.7399  37.6433 15.29630902392812
GALASSIA                
1 41170U 15077E   23016.41119733  .00045957  00000+0  16678-2 0  9993
2 41170  14.9882 298.5369 0009175  26.4796 333.5995 15.26388638392893
VELOX-II                
1 41171U 15077F   23016.35226960  .00030306  00000+0  13241-2 0  9993
2 41171  14.9927  24.9377 0007591 205.7432 154.2512 15.20003877392068
HORYU-4                 
1 41340U 16012D   23015.87601428  .00012531  00000+0  85254-3 0  9997
2 41340  31.0046  81.0146 0012816 156.8703 203.2513 15.05062752379734
E-ST@R-II               
1 41459U 16025D   23016.46696630  .00032056  00000+0  12016-2 0  9996
2 41459  98.1922 203.4896 0128317 263.6443  95.0327 15.19733357369770
AAUSAT 4                
1 41460U 16025E   23016.49173956  .00068063  00000+0  19609-2 0  9994
2 41460  98.1773 212.2014 0099670 231.4777 185.1189 15.30609329370388
BEESAT-4                
1 41619U 16040W   23016.10112375  .00061240  00000+0  15512-2 0  9992
2 41619  97.1884  66.6842 0008912  74.5685 285.6546 15.39476697353337
